NORAD_CAT_ID,OBJECT_NAME,OBJECT_TYPE,EPOCH,MEAN_MOTION,ECCENTRICITY,INCLINATION,RA_OF_ASC_NODE,ARG_OF_PERICENTER,MEAN_ANOMALY,BSTAR,MEAN_MOTION_DOT,MEAN_MOTION_DDOT,TLE_LINE0,TLE_LINE1,TLE_LINE2,SEMIMAJOR_AXIS,PERIOD,APOGEE,PERIGEE,DECAYED
52471.0,STARLINK-3862,PAYLOAD,2023-02-07 05:47:49,15.0885624,0.000129,53.2161,75.9434,87.22,272.8939,0.00047948,7.355e-05,0.0,0 STARLINK-3862,1 52471U 22049W   23038.24154493  .00007355  00000-0  47948-3 0  9999,2 52471  53.2161  75.9434 0001290  87.2200 272.8939 15.08856240 42355,6917.831,95.437,540.588,538.803,0.0
52471.0,STARLINK-3862,PAYLOAD,2023-02-07 12:09:21,15.08873995,0.0001422,53.2162,74.7534,90.7106,269.4049,0.0010198,0.00015994,0.0,0 STARLINK-3862,1 52471U 22049W   23038.50649856  .00015994  00000-0  10198-2 0  9994,2 52471  53.2162  74.7534 0001422  90.7106 269.4049 15.08873995 42232,6917.776,95.435,540.625,538.658,0.0
52471.0,STARLINK-3862,PAYLOAD,2023-02-07 13:44:44,15.08878437,0.0001509,53.2159,74.4562,85.2439,274.8725,0.0011918,0.0001875,0.0,0 STARLINK-3862,1 52471U 22049W   23038.57273715  .00018750  00000-0  11918-2 0  9992,2 52471  53.2159  74.4562 0001509  85.2439 274.8725 15.08878437 42406,6917.763,95.435,540.672,538.584,0.0
52471.0,STARLINK-3862,PAYLOAD,2023-02-08 07:13:59,15.08846808,0.0001329,53.2162,71.1854,124.412,235.6998,0.0017028,0.00026921,0.0,0 STARLINK-3862,1 52471U 22049W   23039.30138203  .00026921  00000-0  17028-2 0  9993,2 52471  53.2162  71.1854 0001329 124.4120 235.6998 15.08846808 42517,6917.86,95.437,540.644,538.805,0.0
52471.0,STARLINK-3862,PAYLOAD,2023-02-08 08:49:22,15.08851474,0.000135,53.2162,70.8881,116.5885,243.5246,0.0016144,0.00025507,0.0,0 STARLINK-3862,1 52471U 22049W   23039.36762191  .00025507  00000-0  16144-2 0  9995,2 52471  53.2162  70.8881 0001350 116.5885 243.5246 15.08851474 42369,6917.845,95.437,540.644,538.776,0.0
52471.0,STARLINK-3862,PAYLOAD,2023-02-08 15:10:54,15.08868733,0.0001284,53.2161,69.6985,119.325,240.7871,0.0021265,0.00033744,0.0,0 STARLINK-3862,1 52471U 22049W   23039.63257820  .00033744  00000-0  21265-2 0  9995,2 52471  53.2161  69.6985 0001284 119.3250 240.7871 15.08868733 42406,6917.793,95.436,540.546,538.769,0.0
52471.0,STARLINK-3862,PAYLOAD,2023-02-09 07:04:47,15.08836976,0.0001056,53.2163,66.7236,87.525,272.5863,0.0017991,0.00028458,0.0,0 STARLINK-3862,1 52471U 22049W   23040.29499022  .00028458  00000-0  17991-2 0  9998,2 52471  53.2163  66.7236 0001056  87.5250 272.5863 15.08836976 42664,6917.89,95.438,540.485,539.024,0.0
52471.0,STARLINK-3862,PAYLOAD,2023-02-09 08:40:10,15.08839039,0.0001076,53.2165,66.4266,85.2099,274.9016,0.0020612,0.00032667,0.0,0 STARLINK-3862,1 52471U 22049W   23040.36123096  .00032667  00000-0  20612-2 0  9992,2 52471  53.2165  66.4266 0001076  85.2099 274.9016 15.08839039 42517,6917.883,95.438,540.493,539.004,0.0
52471.0,STARLINK-3862,PAYLOAD,2023-02-09 18:12:29,15.08839772,0.000135,53.2173,64.6423,66.5243,293.5891,0.0012958,0.00020395,0.0,0 STARLINK-3862,1 52471U 22049W   23040.75867455  .00020395  00000-0  12958-2 0  9998,2 52471  53.2173  64.6423 0001350  66.5243 293.5891 15.08839772 42735,6917.881,95.438,540.68,538.812,0.0
52471.0,STARLINK-3862,PAYLOAD,2023-02-10 02:09:25,15.08832595,0.0001382,53.2184,63.1589,86.5156,273.5994,0.00039804,6.051e-05,0.0,0 STARLINK-3862,1 52471U 22049W   23041.08987705  .00006051  00000-0  39804-3 0  9999,2 52471  53.2184  63.1589 0001382  86.5156 273.5994 15.08832595 42620,6917.903,95.438,540.724,538.812,0.0
52471.0,STARLINK-3862,PAYLOAD,2023-02-10 08:30:57,15.08841792,0.0001364,53.2176,61.969,97.6536,262.4611,0.00038966,5.919e-05,0.0,0 STARLINK-3862,1 52471U 22049W   23041.35483509  .00005919  00000-0  38966-3 0  9992,2 52471  53.2176  61.9690 0001364  97.6536 262.4611 15.08841792 42829,6917.875,95.437,540.684,538.796,0.0
52471.0,STARLINK-3862,PAYLOAD,2023-02-11 05:10:58,15.08842869,0.0001356,53.2173,58.1017,92.7824,267.3323,0.00029149,4.355e-05,0.0,0 STARLINK-3862,1 52471U 22049W   23042.21595629  .00004355  00000-0  29149-3 0  9991,2 52471  53.2173  58.1017 0001356  92.7824 267.3323 15.08842869 42958,6917.872,95.437,540.675,538.799,0.0
52471.0,STARLINK-3862,PAYLOAD,2023-02-11 17:54:03,15.08845436,0.000123,53.2173,55.7243,108.1712,251.9414,0.00019984,2.894e-05,0.0,0 STARLINK-3862,1 52471U 22049W   23042.74587146  .00002894  00000-0  19984-3 0  9996,2 52471  53.2173  55.7243 0001230 108.1712 251.9414 15.08845436 42875,6917.864,95.437,540.58,538.878,0.0
52471.0,STARLINK-3862,PAYLOAD,2023-02-12 00:15:35,15.08841977,0.0001342,53.2162,54.5343,99.2502,260.8642,0.0001267,1.729e-05,0.0,0 STARLINK-3862,1 52471U 22049W   23043.01083322  .00001729  00000-0  12670-3 0  9995,2 52471  53.2162  54.5343 0001342  99.2502 260.8642 15.08841977 42915,6917.874,95.437,540.668,538.811,0.0
52471.0,STARLINK-3862,PAYLOAD,2023-02-12 17:44:50,15.08844288,8.98e-05,53.2169,51.2609,104.9473,255.1618,0.00025867,3.832e-05,0.0,0 STARLINK-3862,1 52471U 22049W   23043.73947498  .00003832  00000-0  25867-3 0  9996,2 52471  53.2169  51.2609 0000898 104.9473 255.1618 15.08844288 43185,6917.867,95.437,540.354,539.111,0.0
52471.0,STARLINK-3862,PAYLOAD,2023-02-13 06:27:56,15.088378,0.0001543,53.2179,48.8826,81.6304,278.4863,8.2128e-05,1.019e-05,0.0,0 STARLINK-3862,1 52471U 22049W   23044.26940066  .00001019  00000-0  82128-4 0  9998,2 52471  53.2179  48.8826 0001543  81.6304 278.4863 15.08837800 43262,6917.887,95.438,540.82,538.685,0.0
52471.0,STARLINK-3862,PAYLOAD,2023-02-13 09:38:42,15.08839659,0.0001565,53.218,48.2875,75.719,284.3976,8.6295e-05,1.086e-05,0.0,0 STARLINK-3862,1 52471U 22049W   23044.40188057  .00001086  00000-0  86295-4 0  9991,2 52471  53.2180  48.2875 0001565  75.7190 284.3976 15.08839659 43123,6917.881,95.438,540.829,538.664,0.0
52471.0,STARLINK-3862,PAYLOAD,2023-02-14 09:29:29,15.08856713,0.0001205,53.2165,43.8258,96.0094,264.1036,0.00047938,7.353e-05,0.0,0 STARLINK-3862,1 52471U 22049W   23045.39547553  .00007353  00000-0  47938-3 0  9993,2 52471  53.2165  43.8258 0001205  96.0094 264.1036 15.08856713 43439,6917.829,95.436,540.528,538.861,0.0
52471.0,STARLINK-3862,PAYLOAD,2023-02-14 11:04:52,15.08860425,0.0001267,53.217,43.5292,87.4481,272.6657,0.00068231,0.00010594,0.0,0 STARLINK-3862,1 52471U 22049W   23045.46171350  .00010594  00000-0  68231-3 0  9999,2 52471  53.2170  43.5292 0001267  87.4481 272.6657 15.08860425 43283,6917.818,95.436,540.559,538.806,0.0
52471.0,STARLINK-3862,PAYLOAD,2023-02-14 17:26:25,15.08839924,0.0001095,53.2186,42.3398,102.6661,257.4453,0.00010176,1.332e-05,0.0,0 STARLINK-3862,1 52471U 22049W   23045.72668032  .00001332  00000-0  10176-3 0  9991,2 52471  53.2186  42.3398 0001095 102.6661 257.4453 15.08839924 43480,6917.881,95.438,540.503,538.988,0.0
52471.0,STARLINK-3862,PAYLOAD,2023-02-15 10:55:39,15.08859907,0.0001319,53.2174,39.0681,106.8353,253.2784,0.00062487,9.676e-05,0.0,0 STARLINK-3862,1 52471U 22049W   23046.45531456  .00009676  00000-0  62487-3 0  9992,2 52471  53.2174  39.0681 0001319 106.8353 253.2784 15.08859907 43594,6917.82,95.436,540.597,538.772,0.0
52471.0,STARLINK-3862,PAYLOAD,2023-02-15 22:03:21,15.08855017,0.0001617,53.217,36.9887,93.4874,266.6303,0.00089872,0.0001405,0.0,0 STARLINK-3862,1 52471U 22049W   23046.91899780  .00014050  00000-0  89872-3 0  9999,2 52471  53.2170  36.9887 0001617  93.4874 266.6303 15.08855017 43665,6917.834,95.437,540.818,538.581,0.0
52471.0,STARLINK-3862,PAYLOAD,2023-02-16 09:11:02,15.08886938,0.0001227,53.2187,34.9074,95.247,264.8662,0.0023949,0.00038082,0.0,0 STARLINK-3862,1 52471U 22049W   23047.38266884  .00038082  00000-0  23949-2 0  9997,2 52471  53.2187  34.9074 0001227  95.2470 264.8662 15.08886938 43572,6917.737,95.435,540.451,538.753,0.0
52471.0,STARLINK-3862,PAYLOAD,2023-02-16 15:32:35,15.08843095,0.0002558,53.2181,33.7164,89.0132,271.1153,0.00040608,6.181e-05,0.0,0 STARLINK-3862,1 52471U 22049W   23047.64763800  .00006181  00000-0  40608-3 0  9993,2 52471  53.2181  33.7164 0002558  89.0132 271.1153 15.08843095 43772,6917.871,95.437,541.506,537.966,0.0
52471.0,STARLINK-3862,PAYLOAD,2023-02-16 23:29:31,15.08823452,0.0001659,53.2187,32.2334,107.3844,252.733,1.1715e-05,-1.02e-06,0.0,0 STARLINK-3862,1 52471U 22049W   23047.97883978 -.00000102  00000-0  11715-4 0  9994,2 52471  53.2187  32.2334 0001659 107.3844 252.7330 15.08823452 43829,6917.931,95.439,540.944,538.648,0.0
52471.0,STARLINK-3862,PAYLOAD,2023-02-17 07:26:27,15.08842955,8.21e-05,53.2178,30.7433,55.7003,304.4067,0.0028554,0.00045452,0.0,0 STARLINK-3862,1 52471U 22049W   23048.31004500  .00045452  00000-0  28554-2 0  9992,2 52471  53.2178  30.7433 0000821  55.7003 304.4067 15.08842955 43871,6917.871,95.437,540.304,539.168,0.0
52471.0,STARLINK-3862,PAYLOAD,2023-02-17 15:23:24,15.08829179,7.75e-05,53.2178,29.2565,73.3713,286.7364,0.0012837,0.00020195,0.0,0 STARLINK-3862,1 52471U 22049W   23048.64125201  .00020195  00000-0  12837-2 0  9994,2 52471  53.2178  29.2565 0000775  73.3713 286.7364 15.08829179 43923,6917.913,95.438,540.315,539.242,0.0
52471.0,STARLINK-3862,PAYLOAD,2023-02-18 05:41:52,15.08834575,6.81e-05,53.218,26.5809,83.6366,276.4704,0.00089485,0.0001398,0.0,0 STARLINK-3862,1 52471U 22049W   23049.23741651  .00013980  00000-0  89485-3 0  9991,2 52471  53.2180  26.5809 0000681  83.6366 276.4704 15.08834575 44012,6917.897,95.438,540.233,539.291,0.0
52471.0,STARLINK-3862,PAYLOAD,2023-02-18 07:17:15,15.08844424,5.84e-05,53.2175,26.283,80.2054,279.9004,0.001203,0.00018912,0.0,0 STARLINK-3862,1 52471U 22049W   23049.30365507  .00018912  00000-0  12030-2 0  9992,2 52471  53.2175  26.2830 0000584  80.2054 279.9004 15.08844424 43863,6917.867,95.437,540.136,539.328,0.0
52471.0,STARLINK-3862,PAYLOAD,2023-02-19 08:43:24,15.08877661,6.91e-05,53.2177,21.5245,87.6907,272.4164,0.0011115,0.00017464,0.0,0 STARLINK-3862,1 52471U 22049W   23050.36348160  .00017464  00000-0  11115-2 0  9990,2 52471  53.2177  21.5245 0000691  87.6907 272.4164 15.08877661 44023,6917.765,95.435,540.108,539.152,0.0
